KUIPER-00251            
1 67156U 25301Z   26004.49332027  .00030974  00000+0  90521-3 0  9990
2 67156  51.8717  15.4941 0009088 164.6926 195.4336 15.34987673  4052
KUIPER-00252            
1 67157U 25301AA  26004.49953249  .00024501  00000+0  72610-3 0  9994
2 67157  51.8663  15.5333 0009892 175.5758 184.5317 15.34669017  3861
KUIPER-00261            
1 67158U 25301AB  26004.48480175  .00029992  00000+0  85341-3 0  9991
2 67158  51.8704  15.4412 0006410 148.1411 211.9964 15.35861615  3862
KUIPER-00265            
1 67159U 25301AC  26004.50003471 -.00524981  00000+0 -16296-1 0  9996
2 67159  51.8753  15.2487 0001017  85.3254  61.2795 15.35018847  3894
